ONEWEB-0205             
1 48226U 21031S   25312.47228955 -.00000519  00000+0 -14357-2 0  9992
2 48226  87.9001 333.6666 0001835  87.5198 272.6142 13.14501232219274
ONEWEB-0206             
1 48227U 21031T   25312.44533778  .00000239  00000+0  61058-3 0  9990
2 48227  87.9012 333.6590 0001980 102.6344 257.5007 13.14500745219221
ONEWEB-0182             
1 48228U 21031U   25312.36446850  .00000333  00000+0  86410-3 0  9990
2 48228  87.8992 333.7105 0001611  91.8204 268.3110 13.14504589219423
ONEWEB-0186             
1 48229U 21031V   25312.45169191  .00000123  00000+0  29858-3 0  9991
2 48229  87.9011 333.6642 0001868  89.8547 270.2796 13.14503054219386
ONEWEB-0181             
1 48230U 21031W   25312.12500530  .00000243  00000+0  62103-3 0  9996
2 48230  87.8990 333.7893 0001982  90.3830 269.7527 13.14504772219193
ONEWEB-0188             
1 48231U 21031X   25312.46754476 -.00000159  00000+0 -46330-3 0  9996
2 48231  87.8992 333.7168 0001786  92.2855 267.8480 13.14501642219146
ONEWEB-0220             
1 48232U 21031Y   25312.05048806  .00000203  00000+0  51215-3 0  9991
2 48232  87.9007 333.7438 0001796  85.9946 274.1389 13.14502319219350
ONEWEB-0165             
1 48233U 21031Z   25312.45960730 -.00000033  00000+0 -12419-3 0  9991
2 48233  87.8991 333.6938 0001916  88.3907 271.7443 13.14504174219360
